[{"OBJECT_NAME":"YAOGAN-39 05C","OBJECT_ID":"2023-194C","EPOCH":"2026-03-09T22:48:54.340416","MEAN_MOTION":15.16682362,"ECCENTRICITY":0.00139818,"INCLINATION":34.9933,"RA_OF_ASC_NODE":339.8218,"ARG_OF_PERICENTER":233.6352,"MEAN_ANOMALY":126.3071,"EPHEMERIS_TYPE":0,"CLASSIFICATION_TYPE":"U","NORAD_CAT_ID":58559,"ELEMENT_SET_NO":999,"REV_AT_EPOCH":12504,"BSTAR":0.0003860733,"MEAN_MOTION_DOT":7.728e-5,"MEAN_MOTION_DDOT":0},{"OBJECT_NAME":"SL-8 DEB","OBJECT_ID":"1971-114D","EPOCH":"2026-03-09T21:09:22.343904","MEAN_MOTION":15.17425388,"ECCENTRICITY":0.00068282,"INCLINATION":73.9839,"RA_OF_ASC_NODE":358.0676,"ARG_OF_PERICENTER":210.5814,"MEAN_ANOMALY":149.4984,"EPHEMERIS_TYPE":0,"CLASSIFICATION_TYPE":"U","NORAD_CAT_ID":5858,"ELEMENT_SET_NO":999,"REV_AT_EPOCH":89033,"BSTAR":0.0013634837,"MEAN_MOTION_DOT":0.00027356,"MEAN_MOTION_DDOT":0}]
